SL-16 R/B               
1 25400U 98043G   26007.47858572  .00000086  00000+0  55033-4 0  9999
2 25400  98.8160 320.4454 0009633 186.0062 174.1004 14.26032916430267
SL-16 R/B               
1 25407U 98045B   26007.26348470 -.00000185  00000+0 -69239-4 0  9991
2 25407  71.0126 310.7507 0005401 132.6423 227.5156 14.16180975418408
ISS (ZARYA)             
1 25544U 98067A   26007.40340206  .00008503  00000+0  16139-3 0  9992
2 25544  51.6331  15.4118 0007618 351.0107   9.0743 15.49153097546833
CZ-4B R/B               
1 25732U 99025C   26007.34892706  .00000062  00000+0  50801-4 0  9993
2 25732  98.6731  53.0515 0037518 159.9531 211.8876 14.18250829379474
OKEAN-O                 
1 25860U 99039A   26007.41004447  .00000887  00000+0  12349-3 0  9994
2 25860  97.9563  67.8855 0001469 112.5184 247.6183 14.80214694425329
SL-16 R/B               
1 25861U 99039B   26007.17792789  .00000718  00000+0  97974-4 0  9992
2 25861  98.0087  66.3264 0016151  96.6870 263.6182 14.81631317427751
DELTA 2 R/B             
1 25876U 99041E   26007.48701838  .00002314  00000+0  41022-3 0  9996
2 25876  51.7596 185.6586 0503960 167.6561 193.7267 14.11507244354384
HELIOS 1B               
1 25977U 99064A   26007.30072590  .00001754  00000+0  20039-3 0  9992
2 25977  98.1746 267.7257 0000315  78.0250 282.1001 14.87410445676139
TERRA                   
1 25994U 99068A   26007.49629609  .00000534  00000+0  11803-3 0  9998
2 25994  97.9711  63.2308 0002847  41.6199  69.6497 14.60936874386149
SL-16 R/B               
1 26070U 00006B   26007.33356953 -.00000027  00000+0  10370-4 0  9997
2 26070  71.0014 226.8447 0018971 274.4089  85.4866 14.15815856339874
TITAN 4B R/B            
1 26474U 00047B   26007.52903777  .00003026  00000+0  19636-3 0  9997
2 26474  67.9875 212.4156 0037299 112.6824 247.8275 15.08999070383683
ENVISAT                 
1 27386U 02009A   26005.89559443  .00000193  00000+0  76295-4 0  9992
2 27386  98.3632 321.0279 0001078  90.4272 337.3404 14.39010190250147
