CCSDS_OMM_VERS = 2.0
CREATION_DATE  = 
ORIGINATOR     = 

OBJECT_NAME    = SL-16 R/B
OBJECT_ID      = 1998-043G
CENTER_NAME    = EARTH
REF_FRAME      = TEME
TIME_SYSTEM    = UTC
MEAN_ELEMENT_THEORY = SGP/SGP4

EPOCH          = 2026-01-07T11:29:09.806208
MEAN_MOTION    = 14.26032916
ECCENTRICITY   = .0009633
INCLINATION    = 98.8160
RA_OF_ASC_NODE = 320.4454
ARG_OF_PERICENTER = 186.0062
MEAN_ANOMALY   = 174.1004

EPHEMERIS_TYPE = 0
CLASSIFICATION_TYPE = U
NORAD_CAT_ID   = 25400
ELEMENT_SET_NO = 999
REV_AT_EPOCH   = 43026
BSTAR          = .55033E-4
MEAN_MOTION_DOT = .86E-6
MEAN_MOTION_DDOT = 0

CCSDS_OMM_VERS = 2.0
CREATION_DATE  = 
ORIGINATOR     = 

OBJECT_NAME    = SL-16 R/B
OBJECT_ID      = 1998-045B
CENTER_NAME    = EARTH
REF_FRAME      = TEME
TIME_SYSTEM    = UTC
MEAN_ELEMENT_THEORY = SGP/SGP4

EPOCH          = 2026-01-07T06:19:25.078080
MEAN_MOTION    = 14.16180975
ECCENTRICITY   = .0005401
INCLINATION    = 71.0126
RA_OF_ASC_NODE = 310.7507
ARG_OF_PERICENTER = 132.6423
MEAN_ANOMALY   = 227.5156

EPHEMERIS_TYPE = 0
CLASSIFICATION_TYPE = U
NORAD_CAT_ID   = 25407
ELEMENT_SET_NO = 999
REV_AT_EPOCH   = 41840
BSTAR          = -.69239E-4
MEAN_MOTION_DOT = -.185E-5
MEAN_MOTION_DDOT = 0

CCSDS_OMM_VERS = 2.0
CREATION_DATE  = 
ORIGINATOR     = 

OBJECT_NAME    = ISS (ZARYA)
OBJECT_ID      = 1998-067A
CENTER_NAME    = EARTH
REF_FRAME      = TEME
TIME_SYSTEM    = UTC
MEAN_ELEMENT_THEORY = SGP/SGP4

EPOCH          = 2026-01-07T09:40:53.937984
MEAN_MOTION    = 15.49153097
ECCENTRICITY   = .0007618
INCLINATION    = 51.6331
RA_OF_ASC_NODE = 15.4118
ARG_OF_PERICENTER = 351.0107
MEAN_ANOMALY   = 9.0743

EPHEMERIS_TYPE = 0
CLASSIFICATION_TYPE = U
NORAD_CAT_ID   = 25544
ELEMENT_SET_NO = 999
REV_AT_EPOCH   = 54683
BSTAR          = .16139E-3
MEAN_MOTION_DOT = .8503E-4
MEAN_MOTION_DDOT = 0

CCSDS_OMM_VERS = 2.0
CREATION_DATE  = 
ORIGINATOR     = 

OBJECT_NAME    = CZ-4B R/B
OBJECT_ID      = 1999-025C
CENTER_NAME    = EARTH
REF_FRAME      = TEME
TIME_SYSTEM    = UTC
MEAN_ELEMENT_THEORY = SGP/SGP4

EPOCH          = 2026-01-07T08:22:27.297984
MEAN_MOTION    = 14.18250829
ECCENTRICITY   = .0037518
INCLINATION    = 98.6731
RA_OF_ASC_NODE = 53.0515
ARG_OF_PERICENTER = 159.9531
MEAN_ANOMALY   = 211.8876

EPHEMERIS_TYPE = 0
CLASSIFICATION_TYPE = U
NORAD_CAT_ID   = 25732
ELEMENT_SET_NO = 999
REV_AT_EPOCH   = 37947
BSTAR          = .50801E-4
MEAN_MOTION_DOT = .62E-6
MEAN_MOTION_DDOT = 0

CCSDS_OMM_VERS = 2.0
CREATION_DATE  = 
ORIGINATOR     = 

OBJECT_NAME    = OKEAN-O
OBJECT_ID      = 1999-039A
CENTER_NAME    = EARTH
REF_FRAME      = TEME
TIME_SYSTEM    = UTC
MEAN_ELEMENT_THEORY = SGP/SGP4

EPOCH          = 2026-01-07T09:50:27.842208
MEAN_MOTION    = 14.80214694
ECCENTRICITY   = .0001469
INCLINATION    = 97.9563
RA_OF_ASC_NODE = 67.8855
ARG_OF_PERICENTER = 112.5184
MEAN_ANOMALY   = 247.6183

EPHEMERIS_TYPE = 0
CLASSIFICATION_TYPE = U
NORAD_CAT_ID   = 25860
ELEMENT_SET_NO = 999
REV_AT_EPOCH   = 42532
BSTAR          = .12349E-3
MEAN_MOTION_DOT = .887E-5
MEAN_MOTION_DDOT = 0

CCSDS_OMM_VERS = 2.0
CREATION_DATE  = 
ORIGINATOR     = 

OBJECT_NAME    = SL-16 R/B
OBJECT_ID      = 1999-039B
CENTER_NAME    = EARTH
REF_FRAME      = TEME
TIME_SYSTEM    = UTC
MEAN_ELEMENT_THEORY = SGP/SGP4

EPOCH          = 2026-01-07T04:16:12.969696
MEAN_MOTION    = 14.81631317
ECCENTRICITY   = .00161515
INCLINATION    = 98.0087
RA_OF_ASC_NODE = 66.3264
ARG_OF_PERICENTER = 96.6870
MEAN_ANOMALY   = 263.6182

EPHEMERIS_TYPE = 0
CLASSIFICATION_TYPE = U
NORAD_CAT_ID   = 25861
ELEMENT_SET_NO = 999
REV_AT_EPOCH   = 42775
BSTAR          = .9797364E-4
MEAN_MOTION_DOT = .718E-5
MEAN_MOTION_DDOT = 0

CCSDS_OMM_VERS = 2.0
CREATION_DATE  = 
ORIGINATOR     = 

OBJECT_NAME    = DELTA 2 R/B
OBJECT_ID      = 1999-041E
CENTER_NAME    = EARTH
REF_FRAME      = TEME
TIME_SYSTEM    = UTC
MEAN_ELEMENT_THEORY = SGP/SGP4

EPOCH          = 2026-01-07T11:41:18.388032
MEAN_MOTION    = 14.11507244
ECCENTRICITY   = .050396
INCLINATION    = 51.7596
RA_OF_ASC_NODE = 185.6586
ARG_OF_PERICENTER = 167.6561
MEAN_ANOMALY   = 193.7267

EPHEMERIS_TYPE = 0
CLASSIFICATION_TYPE = U
NORAD_CAT_ID   = 25876
ELEMENT_SET_NO = 999
REV_AT_EPOCH   = 35438
BSTAR          = .41022E-3
MEAN_MOTION_DOT = .2314E-4
MEAN_MOTION_DDOT = 0

CCSDS_OMM_VERS = 2.0
CREATION_DATE  = 
ORIGINATOR     = 

OBJECT_NAME    = HELIOS 1B
OBJECT_ID      = 1999-064A
CENTER_NAME    = EARTH
REF_FRAME      = TEME
TIME_SYSTEM    = UTC
MEAN_ELEMENT_THEORY = SGP/SGP4

EPOCH          = 2026-01-07T07:13:02.717760
MEAN_MOTION    = 14.87410445
ECCENTRICITY   = .0000315
INCLINATION    = 98.1746
RA_OF_ASC_NODE = 267.7257
ARG_OF_PERICENTER = 78.0250
MEAN_ANOMALY   = 282.1001

EPHEMERIS_TYPE = 0
CLASSIFICATION_TYPE = U
NORAD_CAT_ID   = 25977
ELEMENT_SET_NO = 999
REV_AT_EPOCH   = 67613
BSTAR          = .20039E-3
MEAN_MOTION_DOT = .1754E-4
MEAN_MOTION_DDOT = 0

CCSDS_OMM_VERS = 2.0
CREATION_DATE  = 
ORIGINATOR     = 

OBJECT_NAME    = TERRA
OBJECT_ID      = 1999-068A
CENTER_NAME    = EARTH
REF_FRAME      = TEME
TIME_SYSTEM    = UTC
MEAN_ELEMENT_THEORY = SGP/SGP4

EPOCH          = 2026-01-07T11:54:39.982176
MEAN_MOTION    = 14.60936874
ECCENTRICITY   = .0002847
INCLINATION    = 97.9711
RA_OF_ASC_NODE = 63.2308
ARG_OF_PERICENTER = 41.6199
MEAN_ANOMALY   = 69.6497

EPHEMERIS_TYPE = 0
CLASSIFICATION_TYPE = U
NORAD_CAT_ID   = 25994
ELEMENT_SET_NO = 999
REV_AT_EPOCH   = 38614
BSTAR          = .11803E-3
MEAN_MOTION_DOT = .534E-5
MEAN_MOTION_DDOT = 0

CCSDS_OMM_VERS = 2.0
CREATION_DATE  = 
ORIGINATOR     = 

OBJECT_NAME    = SL-16 R/B
OBJECT_ID      = 2000-006B
CENTER_NAME    = EARTH
REF_FRAME      = TEME
TIME_SYSTEM    = UTC
MEAN_ELEMENT_THEORY = SGP/SGP4

EPOCH          = 2026-01-07T08:00:20.407392
MEAN_MOTION    = 14.15815856
ECCENTRICITY   = .0018971
INCLINATION    = 71.0014
RA_OF_ASC_NODE = 226.8447
ARG_OF_PERICENTER = 274.4089
MEAN_ANOMALY   = 85.4866

EPHEMERIS_TYPE = 0
CLASSIFICATION_TYPE = U
NORAD_CAT_ID   = 26070
ELEMENT_SET_NO = 999
REV_AT_EPOCH   = 33987
BSTAR          = .1037E-4
MEAN_MOTION_DOT = -.27E-6
MEAN_MOTION_DDOT = 0

CCSDS_OMM_VERS = 2.0
CREATION_DATE  = 
ORIGINATOR     = 

OBJECT_NAME    = TITAN 4B R/B
OBJECT_ID      = 2000-047B
CENTER_NAME    = EARTH
REF_FRAME      = TEME
TIME_SYSTEM    = UTC
MEAN_ELEMENT_THEORY = SGP/SGP4

EPOCH          = 2026-01-07T12:41:48.863328
MEAN_MOTION    = 15.08999070
ECCENTRICITY   = .0037299
INCLINATION    = 67.9875
RA_OF_ASC_NODE = 212.4156
ARG_OF_PERICENTER = 112.6824
MEAN_ANOMALY   = 247.8275

EPHEMERIS_TYPE = 0
CLASSIFICATION_TYPE = U
NORAD_CAT_ID   = 26474
ELEMENT_SET_NO = 999
REV_AT_EPOCH   = 38368
BSTAR          = .19636E-3
MEAN_MOTION_DOT = .3026E-4
MEAN_MOTION_DDOT = 0

CCSDS_OMM_VERS = 2.0
CREATION_DATE  = 
ORIGINATOR     = 

OBJECT_NAME    = ENVISAT
OBJECT_ID      = 2002-009A
CENTER_NAME    = EARTH
REF_FRAME      = TEME
TIME_SYSTEM    = UTC
MEAN_ELEMENT_THEORY = SGP/SGP4

EPOCH          = 2026-01-05T21:29:39.358752
MEAN_MOTION    = 14.39010190
ECCENTRICITY   = .00010782
INCLINATION    = 98.3632
RA_OF_ASC_NODE = 321.0279
ARG_OF_PERICENTER = 90.4272
MEAN_ANOMALY   = 337.3404

EPHEMERIS_TYPE = 0
CLASSIFICATION_TYPE = U
NORAD_CAT_ID   = 27386
ELEMENT_SET_NO = 999
REV_AT_EPOCH   = 25014
BSTAR          = .76294626E-4
MEAN_MOTION_DOT = .193E-5
MEAN_MOTION_DDOT = 0

